NORAD_CAT_ID,OBJECT_NAME,OBJECT_TYPE,EPOCH,MEAN_MOTION,ECCENTRICITY,INCLINATION,RA_OF_ASC_NODE,ARG_OF_PERICENTER,MEAN_ANOMALY,BSTAR,MEAN_MOTION_DOT,MEAN_MOTION_DDOT,TLE_LINE0,TLE_LINE1,TLE_LINE2,SEMIMAJOR_AXIS,PERIOD,APOGEE,PERIGEE,DECAYED
52098.0,STARLINK-3665,PAYLOAD,2024-04-11 08:38:55,15.08845703,0.0001286,53.2198,339.5563,88.2814,271.8325,0.00012818,1.753e-05,0.0,0 STARLINK-3665,1 52098U 22029L   24102.36036965  .00001753  00000-0  12818-3 0  9995,2 52098  53.2198 339.5563 0001286  88.2814 271.8325 15.08845703115383,6917.863,95.437,540.618,538.838,0.0
52098.0,STARLINK-3665,PAYLOAD,2024-04-11 21:22:02,15.08829631,0.0001676,53.2212,337.1807,97.2165,262.9017,4.5498e-05,4.36e-06,0.0,0 STARLINK-3665,1 52098U 22029L   24102.89030456  .00000436  00000-0  45498-4 0  9990,2 52098  53.2212 337.1807 0001676  97.2165 262.9017 15.08829631115467,6917.912,95.438,540.937,538.618,0.0
52098.0,STARLINK-3665,PAYLOAD,2024-04-11 22:57:25,15.08832609,0.0001388,53.2198,336.8799,89.4509,270.6642,5.3753e-05,5.68e-06,0.0,0 STARLINK-3665,1 52098U 22029L   24102.95654216  .00000568  00000-0  53753-4 0  9992,2 52098  53.2198 336.8799 0001388  89.4509 270.6642 15.08832609115471,6917.903,95.438,540.728,538.808,0.0
52098.0,STARLINK-3665,PAYLOAD,2024-04-12 22:48:11,15.08840559,0.0001266,53.2183,332.42,89.7012,270.4125,0.00013435,1.851e-05,0.0,0 STARLINK-3665,1 52098U 22029L   24103.95013829  .00001851  00000-0  13435-3 0  9990,2 52098  53.2183 332.4200 0001266  89.7012 270.4125 15.08840559115625,6917.879,95.438,540.619,538.868,0.0
52098.0,STARLINK-3665,PAYLOAD,2024-04-13 00:23:35,15.08840994,0.0001295,53.2172,332.1221,84.2625,275.8514,0.00014059,1.95e-05,0.0,0 STARLINK-3665,1 52098U 22029L   24104.01637779  .00001950  00000-0  14059-3 0  9997,2 52098  53.2172 332.1221 0001295  84.2625 275.8514 15.08840994115630,6917.877,95.437,540.638,538.846,0.0
52098.0,STARLINK-3665,PAYLOAD,2024-04-13 21:03:35,15.0884323,0.0001202,53.2169,328.2543,90.9872,269.1258,0.00015133,2.122e-05,0.0,0 STARLINK-3665,1 52098U 22029L   24104.87749782  .00002122  00000-0  15133-3 0  9995,2 52098  53.2169 328.2543 0001202  90.9872 269.1258 15.08843230115766,6917.871,95.437,540.567,538.904,0.0
52098.0,STARLINK-3665,PAYLOAD,2024-04-14 20:54:22,15.08848259,0.0001321,53.2173,323.7918,87.6637,272.4506,0.00020477,2.973e-05,0.0,0 STARLINK-3665,1 52098U 22029L   24105.87109547  .00002973  00000-0  20477-3 0  9996,2 52098  53.2173 323.7918 0001321  87.6637 272.4506 15.08848259115917,6917.855,95.437,540.634,538.806,0.0
52098.0,STARLINK-3665,PAYLOAD,2024-04-15 00:05:08,15.08849445,0.0001318,53.2173,323.1968,88.6043,271.51,0.00021403,3.121e-05,0.0,0 STARLINK-3665,1 52098U 22029L   24106.00357444  .00003121  00000-0  21403-3 0  9999,2 52098  53.2173 323.1968 0001318  88.6043 271.5100 15.08849445115934,6917.852,95.437,540.628,538.805,0.0
52098.0,STARLINK-3665,PAYLOAD,2024-04-15 20:45:09,15.08843607,0.0001352,53.2173,319.3304,104.0044,256.1098,0.00010042,1.311e-05,0.0,0 STARLINK-3665,1 52098U 22029L   24106.86469549  .00001311  00000-0  10042-3 0  9999,2 52098  53.2173 319.3304 0001352 104.0044 256.1098 15.08843607116061,6917.869,95.437,540.67,538.799,0.0
52098.0,STARLINK-3665,PAYLOAD,2024-04-16 20:35:56,15.08852976,0.0001301,53.2176,314.8743,95.5314,264.5826,0.00028311,4.222e-05,0.0,0 STARLINK-3665,1 52098U 22029L   24107.85829124  .00004222  00000-0  28311-3 0  9990,2 52098  53.2176 314.8743 0001301  95.5314 264.5826 15.08852976116217,6917.841,95.437,540.606,538.806,0.0
52098.0,STARLINK-3665,PAYLOAD,2024-04-16 23:46:42,15.08856716,0.0001265,53.2175,314.2788,95.5864,264.5273,0.0003664,5.551e-05,0.0,0 STARLINK-3665,1 52098U 22029L   24107.99076944  .00005551  00000-0  36640-3 0  9999,2 52098  53.2175 314.2788 0001265  95.5864 264.5273 15.08856716116232,6917.829,95.436,540.569,538.819,0.0
52098.0,STARLINK-3665,PAYLOAD,2024-04-17 20:26:45,15.08799796,0.0001337,53.2172,310.4124,67.9799,292.1335,-0.00077424,-0.00012575,0.0,0 STARLINK-3665,1 52098U 22029L   24108.85191023 -.00012575  00000-0 -77424-3 0  9992,2 52098  53.2172 310.4124 0001337  67.9799 292.1335 15.08799796116365,6918.003,95.44,540.793,538.943,0.0
52098.0,STARLINK-3665,PAYLOAD,2024-04-18 12:20:37,15.08797978,0.0001486,53.2173,307.4352,147.2425,212.8659,-0.00037364,-6.223e-05,0.0,0 STARLINK-3665,1 52098U 22029L   24109.51432254 -.00006223  00000-0 -37364-3 0  9992,2 52098  53.2173 307.4352 0001486 147.2425 212.8659 15.08797978116467,6918.009,95.44,540.902,538.846,0.0
52098.0,STARLINK-3665,PAYLOAD,2024-04-18 18:42:09,15.08849623,0.0001396,53.2168,306.2502,92.4642,267.651,0.00086372,0.00013488,0.0,0 STARLINK-3665,1 52098U 22029L   24109.77927533  .00013488  00000-0  86372-3 0  9991,2 52098  53.2168 306.2502 0001396  92.4642 267.6510 15.08849623116501,6917.851,95.437,540.682,538.75,0.0
52098.0,STARLINK-3665,PAYLOAD,2024-04-19 12:11:23,15.08861669,0.0001712,53.2172,302.9829,108.2086,251.9093,0.00081813,0.00012764,0.0,0 STARLINK-3665,1 52098U 22029L   24110.50791101  .00012764  00000-0  81813-3 0  9995,2 52098  53.2172 302.9829 0001712 108.2086 251.9093 15.08861669116619,6917.814,95.436,540.863,538.495,0.0
52098.0,STARLINK-3665,PAYLOAD,2024-04-19 13:46:46,15.08856193,0.0001667,53.2171,302.6831,106.1784,253.9392,0.00077809,0.00012122,0.0,0 STARLINK-3665,1 52098U 22029L   24110.57415330  .00012122  00000-0  77809-3 0  9997,2 52098  53.2171 302.6831 0001667 106.1784 253.9392 15.08856193116620,6917.831,95.437,540.849,538.543,0.0
52098.0,STARLINK-3665,PAYLOAD,2024-04-19 20:08:19,15.08846015,0.0001432,53.2161,301.4911,94.6472,265.4683,0.00047947,7.352e-05,0.0,0 STARLINK-3665,1 52098U 22029L   24110.83911254  .00007352  00000-0  47947-3 0  9991,2 52098  53.2161 301.4911 0001432  94.6472 265.4683 15.08846015116667,6917.862,95.437,540.718,538.736,0.0
52098.0,STARLINK-3665,PAYLOAD,2024-04-20 12:02:09,15.08859481,0.0001396,53.2158,298.5174,87.9335,272.1817,1.3157e-05,-7.8e-07,0.0,0 STARLINK-3665,1 52098U 22029L   24111.50150210 -.00000078  00000-0  13157-4 0  9999,2 52098  53.2158 298.5174 0001396  87.9335 272.1817 15.08859481116768,6917.821,95.436,540.652,538.72,0.0
52098.0,STARLINK-3665,PAYLOAD,2024-04-20 19:59:06,15.08839054,0.000144,53.2163,297.0304,84.5698,275.5458,-0.00024733,-4.222e-05,0.0,0 STARLINK-3665,1 52098U 22029L   24111.83271118 -.00004222  00000-0 -24733-3 0  9993,2 52098  53.2163 297.0304 0001440  84.5698 275.5458 15.08839054116816,6917.883,95.438,540.744,538.752,0.0
52098.0,STARLINK-3665,PAYLOAD,2024-04-21 11:52:57,15.08836204,0.0001391,53.2167,294.0566,87.6021,272.513,-4.2274e-05,-9.61e-06,0.0,0 STARLINK-3665,1 52098U 22029L   24112.49511300 -.00000961  00000-0 -42274-4 0  9993,2 52098  53.2167 294.0566 0001391  87.6021 272.5130 15.08836204116915,6917.892,95.438,540.719,538.795,0.0
52098.0,STARLINK-3665,PAYLOAD,2024-04-21 18:14:30,15.08843673,0.0001453,53.2163,292.867,82.3367,277.779,3.8681e-05,3.28e-06,0.0,0 STARLINK-3665,1 52098U 22029L   24112.76006975  .00000328  00000-0  38681-4 0  9992,2 52098  53.2163 292.8670 0001453  82.3367 277.7790 15.08843673116958,6917.869,95.437,540.739,538.729,0.0
52098.0,STARLINK-3665,PAYLOAD,2024-04-22 18:05:17,15.08842146,0.0001448,53.2164,288.4064,86.0117,274.104,0.00026959,4.005e-05,0.0,0 STARLINK-3665,1 52098U 22029L   24113.75367178  .00004005  00000-0  26959-3 0  9997,2 52098  53.2164 288.4064 0001448  86.0117 274.1040 15.08842146117106,6917.874,95.437,540.741,538.737,0.0
52098.0,STARLINK-3665,PAYLOAD,2024-04-23 11:34:31,15.08843874,0.0001558,53.217,285.1352,98.1131,262.0038,8.4959e-05,1.065e-05,0.0,0 STARLINK-3665,1 52098U 22029L   24114.48231048  .00001065  00000-0  84959-4 0  9992,2 52098  53.2170 285.1352 0001558  98.1131 262.0038 15.08843874117213,6917.869,95.437,540.811,538.656,0.0
52098.0,STARLINK-3665,PAYLOAD,2024-04-23 14:45:17,15.08841517,0.0001603,53.2174,284.5397,99.3783,260.739,3.5927e-05,2.84e-06,0.0,0 STARLINK-3665,1 52098U 22029L   24114.61479130  .00000284  00000-0  35927-4 0  9996,2 52098  53.2174 284.5397 0001603  99.3783 260.7390 15.08841517117236,6917.876,95.437,540.85,538.632,0.0
52098.0,STARLINK-3665,PAYLOAD,2024-04-23 17:56:04,15.08841796,0.0001578,53.217,283.9456,92.0011,268.1162,2.8849e-05,1.71e-06,0.0,0 STARLINK-3665,1 52098U 22029L   24114.74727117  .00000171  00000-0  28849-4 0  9991,2 52098  53.2170 283.9456 0001578  92.0011 268.1162 15.08841796117256,6917.875,95.437,540.832,538.648,0.0
52098.0,STARLINK-3665,PAYLOAD,2024-04-24 16:11:28,15.08836062,0.0001627,53.2183,279.7826,104.7154,255.4019,3.2137e-05,2.23e-06,0.0,0 STARLINK-3665,1 52098U 22029L   24115.67463492  .00000223  00000-0  32137-4 0  9990,2 52098  53.2183 279.7826 0001627 104.7154 255.4019 15.08836062117393,6917.892,95.438,540.883,538.632,0.0
52098.0,STARLINK-3665,PAYLOAD,2024-04-24 20:57:37,15.08837998,0.0001637,53.2183,278.89,105.6202,254.4971,4.1796e-05,3.77e-06,0.0,0 STARLINK-3665,1 52098U 22029L   24115.87335372  .00000377  00000-0  41796-4 0  9998,2 52098  53.2183 278.8900 0001637 105.6202 254.4971 15.08837998117420,6917.887,95.438,540.884,538.619,0.0
52098.0,STARLINK-3665,PAYLOAD,2024-04-25 14:26:52,15.08832904,0.0001587,53.2178,275.6172,108.8119,251.3045,2.4023e-05,9.4e-07,0.0,0 STARLINK-3665,1 52098U 22029L   24116.60199889  .00000094  00000-0  24023-4 0  9991,2 52098  53.2178 275.6172 0001587 108.8119 251.3045 15.08832904117538,6917.902,95.438,540.865,538.669,0.0
52098.0,STARLINK-3665,PAYLOAD,2024-04-25 16:02:15,15.08831947,0.0001595,53.218,275.3198,110.8353,249.281,1.2018e-05,-9.7e-07,0.0,0 STARLINK-3665,1 52098U 22029L   24116.66823990 -.00000097  00000-0  12018-4 0  9999,2 52098  53.2180 275.3198 0001595 110.8353 249.2810 15.08831947117541,6917.905,95.438,540.873,538.667,0.0
52098.0,STARLINK-3665,PAYLOAD,2024-04-26 11:06:53,15.08838454,0.000139,53.218,271.7513,100.1878,259.9271,9.1762e-05,1.173e-05,0.0,0 STARLINK-3665,1 52098U 22029L   24117.46311633  .00001173  00000-0  91762-4 0  9992,2 52098  53.2180 271.7513 0001390 100.1878 259.9271 15.08838454117661,6917.885,95.438,540.712,538.789,0.0
